[{"OBJECT_NAME":"SITRO-AIS 5 (KATYS)","OBJECT_ID":"2023-091L","EPOCH":"2026-03-09T22:36:44.932608","MEAN_MOTION":15.27079182,"ECCENTRICITY":0.00133776,"INCLINATION":97.5176,"RA_OF_ASC_NODE":132.0172,"ARG_OF_PERICENTER":94.5677,"MEAN_ANOMALY":265.709,"EPHEMERIS_TYPE":0,"CLASSIFICATION_TYPE":"U","NORAD_CAT_ID":57176,"ELEMENT_SET_NO":999,"REV_AT_EPOCH":14918,"BSTAR":0.00057530772,"MEAN_MOTION_DOT":0.00015262,"MEAN_MOTION_DDOT":0},{"OBJECT_NAME":"STARLINK-31928","OBJECT_ID":"2024-100N","EPOCH":"2026-03-09T13:25:35.319648","MEAN_MOTION":15.27576798,"ECCENTRICITY":0.0001814,"INCLINATION":43.0044,"RA_OF_ASC_NODE":126.422,"ARG_OF_PERICENTER":274.138,"MEAN_ANOMALY":85.9265,"EPHEMERIS_TYPE":0,"CLASSIFICATION_TYPE":"U","NORAD_CAT_ID":59897,"ELEMENT_SET_NO":999,"REV_AT_EPOCH":10103,"BSTAR":-7.9884e-5,"MEAN_MOTION_DOT":-2.46e-5,"MEAN_MOTION_DDOT":0}]
